[{"OBJECT_NAME":"STARLINK-4465","OBJECT_ID":"2022-099AH","EPOCH":"2026-03-10T00:00:02.999808","MEAN_MOTION":15.8813169,"ECCENTRICITY":9.809e-5,"INCLINATION":97.6408,"RA_OF_ASC_NODE":215.7602,"ARG_OF_PERICENTER":79.9694,"MEAN_ANOMALY":110.339,"EPHEMERIS_TYPE":0,"CLASSIFICATION_TYPE":"U","NORAD_CAT_ID":53496,"ELEMENT_SET_NO":999,"REV_AT_EPOCH":595,"BSTAR":0.0017576958,"MEAN_MOTION_DOT":0.00504014,"MEAN_MOTION_DDOT":0},{"OBJECT_NAME":"OBJECT M","OBJECT_ID":"2026-042M","EPOCH":"2026-03-09T18:00:02.000160","MEAN_MOTION":16.02275484,"ECCENTRICITY":7.538e-5,"INCLINATION":53.1606,"RA_OF_ASC_NODE":194.9878,"ARG_OF_PERICENTER":55.2528,"MEAN_ANOMALY":3.4787,"EPHEMERIS_TYPE":0,"CLASSIFICATION_TYPE":"U","NORAD_CAT_ID":68080,"ELEMENT_SET_NO":999,"REV_AT_EPOCH":206,"BSTAR":-0.0021351219,"MEAN_MOTION_DOT":-0.01277781,"MEAN_MOTION_DDOT":0.00053138172}]
